[{"OBJECT_NAME":"DIWATA-2B","OBJECT_ID":"2018-084H","EPOCH":"2026-03-09T23:44:16.821312","MEAN_MOTION":14.99967379,"ECCENTRICITY":0.00117782,"INCLINATION":98.1039,"RA_OF_ASC_NODE":261.0381,"ARG_OF_PERICENTER":125.8755,"MEAN_ANOMALY":234.3563,"EPHEMERIS_TYPE":0,"CLASSIFICATION_TYPE":"U","NORAD_CAT_ID":43678,"ELEMENT_SET_NO":999,"REV_AT_EPOCH":40134,"BSTAR":0.00041230334,"MEAN_MOTION_DOT":5.066e-5,"MEAN_MOTION_DDOT":0},{"OBJECT_NAME":"COSMOS 2228","OBJECT_ID":"1992-094A","EPOCH":"2026-03-09T22:06:22.986432","MEAN_MOTION":14.97191104,"ECCENTRICITY":0.00167811,"INCLINATION":82.5157,"RA_OF_ASC_NODE":237.0886,"ARG_OF_PERICENTER":303.9293,"MEAN_ANOMALY":56.0333,"EPHEMERIS_TYPE":0,"CLASSIFICATION_TYPE":"U","NORAD_CAT_ID":22286,"ELEMENT_SET_NO":999,"REV_AT_EPOCH":77609,"BSTAR":0.0002463535,"MEAN_MOTION_DOT":2.881e-5,"MEAN_MOTION_DDOT":0}]
